{
  "type": "FeatureCollection",
  "features": [
    {
      "type": "Feature",
      "properties": {
        "norad_id": 35836,
        "name": "COSMOS 2251 DEB",
        "group": "cosmos-2251-debris",
        "lat": 56.427045480698986,
        "lon": -168.9616821942526,
        "alt_km": 668.1575648672924,
        "timestamp": "2025-12-16T13:52:37.918888+00:00",
        "meta_object_name": "COSMOS 2251 DEB",
        "meta_object_id": "1993-036ATJ",
        "meta_epoch": "2025-12-15T04:57:37.173600",
        "meta_mean_motion": 14.7102941,
        "meta_eccentricity": 0.00240331,
        "meta_inclination": 74.0312,
        "meta_ra_of_asc_node": 168.1432,
        "meta_arg_of_pericenter": 226.3716,
        "meta_mean_anomaly": 133.5463,
        "meta_ephemeris_type": 0,
        "meta_classification_type": "U",
        "meta_norad_cat_id": 35836,
        "meta_element_set_no": 999,
        "meta_rev_at_epoch": 63556,
        "meta_bstar": 0.0012109146,
        "meta_mean_motion_dot": 7.444e-05,
        "meta_mean_motion_ddot": 0,
        "tle_line1": "1 35836U 93036ATJ 25349.20668025  .00007444  00000+0  12109-2 0  9991",
        "tle_line2": "2 35836  74.0312 168.1432 0024033 226.3716 133.5463 14.71029410635567"
      },
      "geometry": {
        "type": "Point",
        "coordinates": [
          -168.9616821942526,
          56.427045480698986
        ]
      }
    },
    {
      "type": "Feature",
      "properties": {
        "norad_id": 35837,
        "name": "COSMOS 2251 DEB",
        "group": "cosmos-2251-debris",
        "lat": -55.78032850368319,
        "lon": 175.79887074873858,
        "alt_km": 1342.0869313013263,
        "timestamp": "2025-12-16T13:52:37.918898+00:00",
        "meta_object_name": "COSMOS 2251 DEB",
        "meta_object_id": "1993-036ATK",
        "meta_epoch": "2025-12-15T09:05:06.776160",
        "meta_mean_motion": 13.63487481,
        "meta_eccentricity": 0.04220862,
        "meta_inclination": 73.7223,
        "meta_ra_of_asc_node": 203.2367,
        "meta_arg_of_pericenter": 123.6025,
        "meta_mean_anomaly": 50.428,
        "meta_ephemeris_type": 0,
        "meta_classification_type": "U",
        "meta_norad_cat_id": 35837,
        "meta_element_set_no": 999,
        "meta_rev_at_epoch": 58012,
        "meta_bstar": 0.0018212331,
        "meta_mean_motion_dot": 2.609e-05,
        "meta_mean_motion_ddot": 0,
        "tle_line1": "1 35837U 93036ATK 25349.37855065  .00002609  00000+0  18212-2 0  9991",
        "tle_line2": "2 35837  73.7223 203.2367 0422086 123.6025  50.4280 13.63487481580126"
      },
      "geometry": {
        "type": "Point",
        "coordinates": [
          175.79887074873858,
          -55.78032850368319
        ]
      }
    },
    {
      "type": "Feature",
      "properties": {
        "norad_id": 35839,
        "name": "COSMOS 2251 DEB",
        "group": "cosmos-2251-debris",
        "lat": 61.94984206002447,
        "lon": -12.776048731094305,
        "alt_km": 394.94937442644186,
        "timestamp": "2025-12-16T13:52:37.918909+00:00",
        "meta_object_name": "COSMOS 2251 DEB",
        "meta_object_id": "1993-036ATM",
        "meta_epoch": "2025-12-15T14:25:31.039680",
        "meta_mean_motion": 15.5439678,
        "meta_eccentricity": 0.00035051,
        "meta_inclination": 74.2054,
        "meta_ra_of_asc_node": 317.2687,
        "meta_arg_of_pericenter": 130.154,
        "meta_mean_anomaly": 229.9984,
        "meta_ephemeris_type": 0,
        "meta_classification_type": "U",
        "meta_norad_cat_id": 35839,
        "meta_element_set_no": 999,
        "meta_rev_at_epoch": 88612,
        "meta_bstar": 0.0039077103,
        "meta_mean_motion_dot": 0.00265243,
        "meta_mean_motion_ddot": 0,
        "tle_line1": "1 35839U 93036ATM 25349.60105370  .00265243  00000+0  39077-2 0  9993",
        "tle_line2": "2 35839  74.2054 317.2687 0003505 130.1540 229.9984 15.54396780886129"
      },
      "geometry": {
        "type": "Point",
        "coordinates": [
          -12.776048731094305,
          61.94984206002447
        ]
      }
    },
    {
      "type": "Feature",
      "properties": {
        "norad_id": 35840,
        "name": "COSMOS 2251 DEB",
        "group": "cosmos-2251-debris",
        "lat": 48.05893186990137,
        "lon": 169.77718002761677,
        "alt_km": 677.8170910683557,
        "timestamp": "2025-12-16T13:52:37.918919+00:00",
        "meta_object_name": "COSMOS 2251 DEB",
        "meta_object_id": "1993-036ATN",
        "meta_epoch": "2025-12-12T04:26:56.474304",
        "meta_mean_motion": 14.37821687,
        "meta_eccentricity": 0.01162768,
        "meta_inclination": 73.9307,
        "meta_ra_of_asc_node": 159.2062,
        "meta_arg_of_pericenter": 61.7798,
        "meta_mean_anomaly": 299.5037,
        "meta_ephemeris_type": 0,
        "meta_classification_type": "U",
        "meta_norad_cat_id": 35840,
        "meta_element_set_no": 999,
        "meta_rev_at_epoch": 85283,
        "meta_bstar": 0.0026691111,
        "meta_mean_motion_dot": 8.683e-05,
        "meta_mean_motion_ddot": 0,
        "tle_line1": "1 35840U 93036ATN 25346.18537586  .00008683  00000+0  26691-2 0  9994",
        "tle_line2": "2 35840  73.9307 159.2062 0116276  61.7798 299.5037 14.37821687852835"
      },
      "geometry": {
        "type": "Point",
        "coordinates": [
          169.77718002761677,
          48.05893186990137
        ]
      }
    },
    {
      "type": "Feature",
      "properties": {
        "norad_id": 35883,
        "name": "COSMOS 2251 DEB",
        "group": "cosmos-2251-debris",
        "lat": -44.98618947564067,
        "lon": -100.5565651014246,
        "alt_km": 681.8180254941853,
        "timestamp": "2025-12-16T13:52:37.918929+00:00",
        "meta_object_name": "COSMOS 2251 DEB",
        "meta_object_id": "1993-036ATW",
        "meta_epoch": "2025-12-15T13:58:55.079616",
        "meta_mean_motion": 14.50613846,
        "meta_eccentricity": 0.00835385,
        "meta_inclination": 74.0252,
        "meta_ra_of_asc_node": 64.6779,
        "meta_arg_of_pericenter": 193.3998,
        "meta_mean_anomaly": 235.9956,
        "meta_ephemeris_type": 0,
        "meta_classification_type": "U",
        "meta_norad_cat_id": 35883,
        "meta_element_set_no": 999,
        "meta_rev_at_epoch": 62427,
        "meta_bstar": 0.00024458991,
        "meta_mean_motion_dot": 9.74e-06,
        "meta_mean_motion_ddot": 0,
        "tle_line1": "1 35883U 93036ATW 25349.58258194  .00000974  00000+0  24459-3 0  9999",
        "tle_line2": "2 35883  74.0252  64.6779 0083538 193.3998 235.9956 14.50613846624275"
      },
      "geometry": {
        "type": "Point",
        "coordinates": [
          -100.5565651014246,
          -44.98618947564067
        ]
      }
    },
    {
      "type": "Feature",
      "properties": {
        "norad_id": 35884,
        "name": "COSMOS 2251 DEB",
        "group": "cosmos-2251-debris",
        "lat": -35.886948371516205,
        "lon": -42.92543964002945,
        "alt_km": 881.3524748703439,
        "timestamp": "2025-12-16T13:52:37.918940+00:00",
        "meta_object_name": "COSMOS 2251 DEB",
        "meta_object_id": "1993-036ATX",
        "meta_epoch": "2025-12-09T17:00:47.209536",
        "meta_mean_motion": 14.25629404,
        "meta_eccentricity": 0.01087033,
        "meta_inclination": 73.9912,
        "meta_ra_of_asc_node": 341.4952,
        "meta_arg_of_pericenter": 129.2859,
        "meta_mean_anomaly": 231.7992,
        "meta_ephemeris_type": 0,
        "meta_classification_type": "U",
        "meta_norad_cat_id": 35884,
        "meta_element_set_no": 999,
        "meta_rev_at_epoch": 22314,
        "meta_bstar": 0.001725321,
        "meta_mean_motion_dot": 4.326e-05,
        "meta_mean_motion_ddot": 0,
        "tle_line1": "1 35884U 93036ATX 25343.70887974  .00004326  00000+0  17253-2 0  9990",
        "tle_line2": "2 35884  73.9912 341.4952 0108703 129.2859 231.7992 14.25629404223146"
      },
      "geometry": {
        "type": "Point",
        "coordinates": [
          -42.92543964002945,
          -35.886948371516205
        ]
      }
    },
    {
      "type": "Feature",
      "properties": {
        "norad_id": 35885,
        "name": "COSMOS 2251 DEB",
        "group": "cosmos-2251-debris",
        "lat": -72.70266879130097,
        "lon": -139.147471958769,
        "alt_km": 773.7660891201449,
        "timestamp": "2025-12-16T13:52:37.918949+00:00",
        "meta_object_name": "COSMOS 2251 DEB",
        "meta_object_id": "1993-036ATY",
        "meta_epoch": "2025-12-15T04:51:32.201856",
        "meta_mean_motion": 14.37525016,
        "meta_eccentricity": 0.00233799,
        "meta_inclination": 74.0284,
        "meta_ra_of_asc_node": 290.2606,
        "meta_arg_of_pericenter": 10.1801,
        "meta_mean_anomaly": 349.9821,
        "meta_ephemeris_type": 0,
        "meta_classification_type": "U",
        "meta_norad_cat_id": 35885,
        "meta_element_set_no": 999,
        "meta_rev_at_epoch": 65051,
        "meta_bstar": 0.00032687852,
        "meta_mean_motion_dot": 9.56e-06,
        "meta_mean_motion_ddot": 0,
        "tle_line1": "1 35885U 93036ATY 25349.20245604  .00000956  00000+0  32688-3 0  9995",
        "tle_line2": "2 35885  74.0284 290.2606 0023379  10.1801 349.9821 14.37525016650513"
      },
      "geometry": {
        "type": "Point",
        "coordinates": [
          -139.147471958769,
          -72.70266879130097
        ]
      }
    }
  ]
}